OBJECT_NAME,OBJECT_ID,EPOCH,MEAN_MOTION,ECCENTRICITY,INCLINATION,RA_OF_ASC_NODE,ARG_OF_PERICENTER,MEAN_ANOMALY,EPHEMERIS_TYPE,CLASSIFICATION_TYPE,NORAD_CAT_ID,ELEMENT_SET_NO,REV_AT_EPOCH,BSTAR,MEAN_MOTION_DOT,MEAN_MOTION_DDOT
SCD 1,1993-009B,2026-06-15T20:56:37.591584,14.46118505,.00421068,24.9679,215.6946,123.8363,37.2877,0,U,22490,999,76092,.46676741E-4,.357E-5,0
TECHSAT 1B (GO-32),1998-043D,2026-06-16T05:18:55.343232,14.24428195,.0001002,99.0067,159.9557,165.2007,194.9200,0,U,25397,999,45119,.3314149E-4,.3E-6,0
SCD 2,1998-060A,2026-06-16T01:17:19.495968,14.45525509,.00169659,24.9952,79.1473,111.0820,271.9229,0,U,25504,999,46016,.50287527E-4,.362E-5,0
DLR-TUBSAT,1999-029B,2026-06-16T06:14:30.728832,14.52426650,.00141092,98.6695,162.7337,358.0726,2.0412,0,U,25757,999,43311,.25757399E-4,.56E-6,0
TERRA,1999-068A,2026-06-16T06:21:26.172000,14.61102450,.00015106,97.9457,216.8477,192.7850,231.8615,0,U,25994,999,40947,.74040219E-4,.32E-5,0
MAROC-TUBSAT,2001-056D,2026-06-16T01:30:51.223968,13.70262448,.00202935,99.8081,343.9015,144.0731,327.7488,0,U,27004,999,22603,.12912092E-4,-.35E-6,0
AQUA,2002-022A,2026-06-16T05:34:53.259168,14.62156908,.00011364,98.4277,136.4963,52.8200,6.1550,0,U,27424,999,28313,.13892091E-3,.649E-5,0
SHIYAN-1 (SY-1),2004-012A,2026-06-16T04:55:11.327808,15.33740196,.00056717,97.8693,245.2092,36.1741,323.9882,0,U,28220,999,21094,.34447358E-3,.11162E-3,0
AURA,2004-026A,2026-06-16T07:13:59.973312,14.61328015,.00012176,98.3417,123.7473,74.4861,285.6474,0,U,28376,999,16608,.14164156E-3,.651E-5,0
IRS-P5 (CARTOSAT-1),2005-017A,2026-06-16T00:06:34.089408,14.91046727,.00026058,97.5308,190.1226,81.1780,278.9734,0,U,28649,999,14364,.13596215E-3,.1293E-4,0
SINAH 1,2005-043D,2026-06-16T07:15:29.723040,14.64157156,.00131382,98.2859,301.6192,279.8365,80.1354,0,U,28893,999,10039,.58216062E-4,.257E-5,0
RESURS-DK 1,2006-021A,2026-06-16T04:13:27.997536,15.13215473,.00069318,69.9341,342.1698,292.7954,67.2480,0,U,29228,999,10242,.12094024E-3,.2045E-4,0
ARIRANG-2 (KOMPSAT-2),2006-031A,2026-06-16T08:20:57.280416,14.64659265,.00159285,97.8299,351.8349,77.0683,44.4570,0,U,29268,999,6135,.28764489E-4,.108E-5,0
LAPAN-TUBSAT,2007-001A,2026-06-16T05:51:45.582912,14.85950939,.0011774,98.1336,166.4468,182.1821,177.9344,0,U,29709,999,5101,.54838964E-4,.421E-5,0
HAIYANG-1B,2007-010A,2026-06-16T05:39:36.931968,14.31026668,.00129541,98.3495,149.1179,199.2867,160.7828,0,U,31113,999,50,.41177129E-4,.67E-6,0
COSMO-SKYMED 1,2007-023A,2026-06-16T06:23:13.224192,14.97095115,.00012544,97.8841,359.1140,99.9971,260.1392,0,U,31598,999,2965,.19174718E-3,.2152E-4,0
TERRASAR-X,2007-026A,2026-06-15T13:04:49.653696,15.19148908,.00016045,97.4452,174.2739,89.1769,270.9649,0,U,31698,999,5297,.17393623E-4,.298E-5,0
WORLDVIEW-1 (WV-1),2007-041A,2026-06-16T07:22:35.517792,15.24259013,.00023461,97.3880,287.0632,23.5488,336.5856,0,U,32060,999,4274,.2056675E-3,.4949E-4,0
YAOGAN-3,2007-055A,2026-06-16T07:43:32.807136,14.90782061,.00020026,97.8153,197.2083,82.7028,277.4418,0,U,32289,999,574,.22397123E-3,.2146E-4,0
COSMO-SKYMED 2,2007-059A,2026-06-16T06:48:06.594624,14.82154423,.00013577,97.8886,350.8945,86.9364,273.2005,0,U,32376,999,187,.49214121E-4,.34E-5,0
RADARSAT-2,2007-061A,2026-06-16T06:26:06.636768,14.29982869,.00013093,98.5770,174.2136,83.6217,276.5114,0,U,32382,999,96582,.1746161E-3,.407E-5,0
CARTOSAT-2A,2008-021A,2026-06-16T07:15:31.078656,14.79238850,.0013163,97.7634,216.0413,111.4698,248.7919,0,U,32783,999,97867,.13044086E-3,.92E-5,0
HUANJING 1A (HJ-1A),2008-041A,2026-06-16T06:57:15.645024,14.83983777,.00198682,97.6675,153.1629,137.4334,222.8425,0,U,33320,999,95827,.85572683E-4,.663E-5,0
HUANJING 1B (HJ-1B),2008-041B,2026-06-16T06:12:08.358912,14.83315939,.00359675,97.6510,156.3070,184.0129,176.0802,0,U,33321,999,95827,.13415336E-3,.1059E-4,0
GEOEYE 1,2008-042A,2026-06-16T06:19:55.859808,14.64725047,.0005431,98.1236,241.2068,71.9044,288.2750,0,U,33331,999,95001,.84282768E-4,.401E-5,0
THEOS,2008-049A,2026-06-16T08:02:03.126624,14.20133343,.00012181,98.5575,224.6460,79.4238,280.7076,0,U,33396,999,91784,.31920621E-4,.26E-6,0
COSMO-SKYMED 3,2008-054A,2026-06-16T06:43:07.737888,15.06947450,.00142635,97.8282,25.8357,270.4150,89.5443,0,U,33412,999,95680,.18698021E-3,.2735E-4,0
YAOGAN-4,2008-061A,2026-06-16T06:57:42.923232,14.83198678,.0015743,97.9308,100.8069,75.1335,285.1621,0,U,33446,999,94553,.1082767E-3,.832E-5,0
GOSAT (IBUKI),2009-002A,2026-06-16T06:02:51.768384,14.67541877,.00015351,98.0889,278.3449,85.3669,274.7711,0,U,33492,999,93132,.17944476E-3,.97E-5,0
DEIMOS-1,2009-041A,2026-06-16T07:18:39.217248,14.75236440,.00015685,97.7395,324.5700,131.4071,228.7274,0,U,35681,999,90675,.56246575E-4,.333E-5,0
