{
  "version": 1,
  "fetchedAt": "2026-06-16T16:59:36.124Z",
  "source": "celestrak-gp",
  "counts": {
    "station": 25,
    "satellite": 400,
    "debris": 250
  },
  "objects": [
    {
      "id": "25994",
      "name": "TERRA",
      "noradId": 25994,
      "line1": "1 25994U 99068A   26167.26488625  .00000320  00000+0  74040-4 0  9997",
      "line2": "2 25994  97.9457 216.8477 0001510 192.7850 231.8615 14.61102450409470",
      "category": "satellite"
    },
    {
      "id": "27424",
      "name": "AQUA",
      "noradId": 27424,
      "line1": "1 27424U 02022A   26167.23256087  .00000649  00000+0  13892-3 0  9994",
      "line2": "2 27424  98.4277 136.4963 0001136  52.8200   6.1550 14.62156908283134",
      "category": "satellite"
    },
    {
      "id": "29228",
      "name": "RESURS-DK 1",
      "noradId": 29228,
      "line1": "1 29228U 06021A   26167.17601849  .00002045  00000+0  12094-3 0  9999",
      "line2": "2 29228  69.9341 342.1698 0006931 292.7954  67.2480 15.13215473102425",
      "category": "satellite"
    },
    {
      "id": "31598",
      "name": "COSMO-SKYMED 1",
      "noradId": 31598,
      "line1": "1 31598U 07023A   26167.26612528  .00002152  00000+0  19175-3 0  9997",
      "line2": "2 31598  97.8841 359.1140 0001254  99.9971 260.1392 14.97095115 29651",
      "category": "satellite"
    },
    {
      "id": "22490",
      "name": "SCD 1",
      "noradId": 22490,
      "line1": "1 22490U 93009B   26166.87265731  .00000357  00000+0  46677-4 0  9996",
      "line2": "2 22490  24.9679 215.6946 0042106 123.8363  37.2877 14.46118505760921",
      "category": "satellite"
    },
    {
      "id": "25397",
      "name": "TECHSAT 1B (GO-32)",
      "noradId": 25397,
      "line1": "1 25397U 98043D   26167.22147388  .00000030  00000+0  33141-4 0  9995",
      "line2": "2 25397  99.0067 159.9557 0001002 165.2007 194.9200 14.24428195451199",
      "category": "satellite"
    },
    {
      "id": "25504",
      "name": "SCD 2",
      "noradId": 25504,
      "line1": "1 25504U 98060A   26167.05369787  .00000362  00000+0  50288-4 0  9993",
      "line2": "2 25504  24.9952  79.1473 0016965 111.0820 271.9229 14.45525509460169",
      "category": "satellite"
    },
    {
      "id": "25757",
      "name": "DLR-TUBSAT",
      "noradId": 25757,
      "line1": "1 25757U 99029B   26167.26007788  .00000056  00000+0  25757-4 0  9995",
      "line2": "2 25757  98.6695 162.7337 0014109 358.0726   2.0412 14.52426650433112",
      "category": "satellite"
    },
    {
      "id": "27004",
      "name": "MAROC-TUBSAT",
      "noradId": 27004,
      "line1": "1 27004U 01056D   26167.06309287 -.00000035  00000+0  12912-4 0  9999",
      "line2": "2 27004  99.8081 343.9015 0020293 144.0731 327.7488 13.70262448226030",
      "category": "satellite"
    },
    {
      "id": "28220",
      "name": "SHIYAN-1 (SY-1)",
      "noradId": 28220,
      "line1": "1 28220U 04012A   26167.20499222  .00011162  00000+0  34447-3 0  9998",
      "line2": "2 28220  97.8693 245.2092 0005671  36.1741 323.9882 15.33740196210943",
      "category": "satellite"
    },
    {
      "id": "28376",
      "name": "AURA",
      "noradId": 28376,
      "line1": "1 28376U 04026A   26167.30138858  .00000651  00000+0  14164-3 0  9996",
      "line2": "2 28376  98.3417 123.7473 0001217  74.4861 285.6474 14.61328015166086",
      "category": "satellite"
    },
    {
      "id": "28649",
      "name": "IRS-P5 (CARTOSAT-1)",
      "noradId": 28649,
      "line1": "1 28649U 05017A   26167.00456122  .00001293  00000+0  13596-3 0  9995",
      "line2": "2 28649  97.5308 190.1226 0002605  81.1780 278.9734 14.91046727143641",
      "category": "satellite"
    },
    {
      "id": "28893",
      "name": "SINAH 1",
      "noradId": 28893,
      "line1": "1 28893U 05043D   26167.30242735  .00000257  00000+0  58216-4 0  9999",
      "line2": "2 28893  98.2859 301.6192 0013138 279.8365  80.1354 14.64157156100395",
      "category": "satellite"
    },
    {
      "id": "29268",
      "name": "ARIRANG-2 (KOMPSAT-2)",
      "noradId": 29268,
      "line1": "1 29268U 06031A   26167.34788519  .00000108  00000+0  28764-4 0  9993",
      "line2": "2 29268  97.8299 351.8349 0015928  77.0683  44.4570 14.64659265 61359",
      "category": "satellite"
    },
    {
      "id": "29709",
      "name": "LAPAN-TUBSAT",
      "noradId": 29709,
      "line1": "1 29709U 07001A   26167.24427758  .00000421  00000+0  54839-4 0  9995",
      "line2": "2 29709  98.1336 166.4468 0011774 182.1821 177.9344 14.85950939 51012",
      "category": "satellite"
    },
    {
      "id": "31113",
      "name": "HAIYANG-1B",
      "noradId": 31113,
      "line1": "1 31113U 07010A   26167.23584412  .00000067  00000+0  41177-4 0  9994",
      "line2": "2 31113  98.3495 149.1179 0012954 199.2867 160.7828 14.31026668   508",
      "category": "satellite"
    },
    {
      "id": "31698",
      "name": "TERRASAR-X",
      "noradId": 31698,
      "line1": "1 31698U 07026A   26166.54501914  .00000298  00000+0  17394-4 0  9998",
      "line2": "2 31698  97.4452 174.2739 0001604  89.1769 270.9649 15.19148908 52970",
      "category": "satellite"
    },
    {
      "id": "32060",
      "name": "WORLDVIEW-1 (WV-1)",
      "noradId": 32060,
      "line1": "1 32060U 07041A   26167.30735553  .00004949  00000+0  20567-3 0  9994",
      "line2": "2 32060  97.3880 287.0632 0002346  23.5488 336.5856 15.24259013 42746",
      "category": "satellite"
    },
    {
      "id": "32289",
      "name": "YAOGAN-3",
      "noradId": 32289,
      "line1": "1 32289U 07055A   26167.32190749  .00002146  00000+0  22397-3 0  9996",
      "line2": "2 32289  97.8153 197.2083 0002002  82.7028 277.4418 14.90782061  5747",
      "category": "satellite"
    },
    {
      "id": "32376",
      "name": "COSMO-SKYMED 2",
      "noradId": 32376,
      "line1": "1 32376U 07059A   26167.28340966  .00000340  00000+0  49214-4 0  9992",
      "line2": "2 32376  97.8886 350.8945 0001357  86.9364 273.2005 14.82154423  1874",
      "category": "satellite"
    },
    {
      "id": "32382",
      "name": "RADARSAT-2",
      "noradId": 32382,
      "line1": "1 32382U 07061A   26167.26813237  .00000407  00000+0  17462-3 0  9999",
      "line2": "2 32382  98.5770 174.2136 0001309  83.6217 276.5114 14.29982869965824",
      "category": "satellite"
    },
    {
      "id": "32783",
      "name": "CARTOSAT-2A",
      "noradId": 32783,
      "line1": "1 32783U 08021A   26167.30244304  .00000920  00000+0  13044-3 0  9991",
      "line2": "2 32783  97.7634 216.0413 0013163 111.4698 248.7919 14.79238850978676",
      "category": "satellite"
    },
    {
      "id": "33320",
      "name": "HUANJING 1A (HJ-1A)",
      "noradId": 33320,
      "line1": "1 33320U 08041A   26167.28976441  .00000663  00000+0  85573-4 0  9993",
      "line2": "2 33320  97.6675 153.1629 0019868 137.4334 222.8425 14.83983777958270",
      "category": "satellite"
    },
    {
      "id": "33321",
      "name": "HUANJING 1B (HJ-1B)",
      "noradId": 33321,
      "line1": "1 33321U 08041B   26167.25843008  .00001059  00000+0  13415-3 0  9998",
      "line2": "2 33321  97.6510 156.3070 0035967 184.0129 176.0802 14.83315939958270",
      "category": "satellite"
    },
    {
      "id": "33331",
      "name": "GEOEYE 1",
      "noradId": 33331,
      "line1": "1 33331U 08042A   26167.26384097  .00000401  00000+0  84283-4 0  9991",
      "line2": "2 33331  98.1236 241.2068 0005431  71.9044 288.2750 14.64725047950012",
      "category": "satellite"
    },
    {
      "id": "33396",
      "name": "THEOS",
      "noradId": 33396,
      "line1": "1 33396U 08049A   26167.33475841  .00000026  00000+0  31921-4 0  9999",
      "line2": "2 33396  98.5575 224.6460 0001218  79.4238 280.7076 14.20133343917847",
      "category": "satellite"
    },
    {
      "id": "33412",
      "name": "COSMO-SKYMED 3",
      "noradId": 33412,
      "line1": "1 33412U 08054A   26167.27995067  .00002735  00000+0  18698-3 0  9998",
      "line2": "2 33412  97.8282  25.8357 0014263 270.4150  89.5443 15.06947450956808",
      "category": "satellite"
    },
    {
      "id": "33446",
      "name": "YAOGAN-4",
      "noradId": 33446,
      "line1": "1 33446U 08061A   26167.29008013  .00000832  00000+0  10828-3 0  9994",
      "line2": "2 33446  97.9308 100.8069 0015743  75.1335 285.1621 14.83198678945532",
      "category": "satellite"
    },
    {
      "id": "33492",
      "name": "GOSAT (IBUKI)",
      "noradId": 33492,
      "line1": "1 33492U 09002A   26167.25198806  .00000970  00000+0  17944-3 0  9996",
      "line2": "2 33492  98.0889 278.3449 0001535  85.3669 274.7711 14.67541877931320",
      "category": "satellite"
    },
    {
      "id": "35681",
      "name": "DEIMOS-1",
      "noradId": 35681,
      "line1": "1 35681U 09041A   26167.30462057  .00000333  00000+0  56247-4 0  9992",
      "line2": "2 35681  97.7395 324.5700 0001568 131.4071 228.7274 14.75236440906758",
      "category": "satellite"
    }
  ]
}